[{"OBJECT_NAME":"UNKNOWN","OBJECT_ID":"","EPOCH":"2026-04-25T13:09:11.229696","MEAN_MOTION":13.19507129,"ECCENTRICITY":0.02618629,"INCLINATION":82.2056,"RA_OF_ASC_NODE":226.0018,"ARG_OF_PERICENTER":11.5234,"MEAN_ANOMALY":349.1726,"EPHEMERIS_TYPE":0,"CLASSIFICATION_TYPE":"U","NORAD_CAT_ID":270388,"ELEMENT_SET_NO":999,"REV_AT_EPOCH":6053,"BSTAR":0.0087055569,"MEAN_MOTION_DOT":4.164e-5,"MEAN_MOTION_DDOT":0},{"OBJECT_NAME":"UNKNOWN","OBJECT_ID":"","EPOCH":"2026-04-27T06:23:14.934048","MEAN_MOTION":12.78111901,"ECCENTRICITY":0.01781463,"INCLINATION":82.6122,"RA_OF_ASC_NODE":314.9222,"ARG_OF_PERICENTER":155.0456,"MEAN_ANOMALY":205.939,"EPHEMERIS_TYPE":0,"CLASSIFICATION_TYPE":"U","NORAD_CAT_ID":270389,"ELEMENT_SET_NO":999,"REV_AT_EPOCH":13317,"BSTAR":0.0025766589,"MEAN_MOTION_DOT":6.22e-6,"MEAN_MOTION_DDOT":0},{"OBJECT_NAME":"UNKNOWN","OBJECT_ID":"","EPOCH":"2026-04-11T14:55:37.842528","MEAN_MOTION":13.94544759,"ECCENTRICITY":0.00190306,"INCLINATION":82.5139,"RA_OF_ASC_NODE":73.2546,"ARG_OF_PERICENTER":228.1866,"MEAN_ANOMALY":131.7675,"EPHEMERIS_TYPE":0,"CLASSIFICATION_TYPE":"U","NORAD_CAT_ID":270390,"ELEMENT_SET_NO":999,"REV_AT_EPOCH":32284,"BSTAR":0.00078226397,"MEAN_MOTION_DOT":1.06e-5,"MEAN_MOTION_DDOT":0},{"OBJECT_NAME":"UNKNOWN","OBJECT_ID":"","EPOCH":"2026-04-18T03:39:19.894176","MEAN_MOTION":13.9519583,"ECCENTRICITY":0.01261228,"INCLINATION":98.8715,"RA_OF_ASC_NODE":75.7513,"ARG_OF_PERICENTER":247.9011,"MEAN_ANOMALY":110.8721,"EPHEMERIS_TYPE":0,"CLASSIFICATION_TYPE":"U","NORAD_CAT_ID":270391,"ELEMENT_SET_NO":999,"REV_AT_EPOCH":17298,"BSTAR":5.8803812e-5,"MEAN_MOTION_DOT":4.2e-7,"MEAN_MOTION_DDOT":0},{"OBJECT_NAME":"UNKNOWN","OBJECT_ID":"","EPOCH":"2026-04-26T17:56:07.350720","MEAN_MOTION":14.11944719,"ECCENTRICITY":0.00423118,"INCLINATION":98.8333,"RA_OF_ASC_NODE":119.5879,"ARG_OF_PERICENTER":120.7886,"MEAN_ANOMALY":239.7461,"EPHEMERIS_TYPE":0,"CLASSIFICATION_TYPE":"U","NORAD_CAT_ID":270392,"ELEMENT_SET_NO":999,"REV_AT_EPOCH":16829,"BSTAR":0.00027364011,"MEAN_MOTION_DOT":4.61e-6,"MEAN_MOTION_DDOT":0},{"OBJECT_NAME":"UNKNOWN","OBJECT_ID":"","EPOCH":"2026-04-20T08:48:51.098976","MEAN_MOTION":14.1740006,"ECCENTRICITY":0.00201827,"INCLINATION":81.2248,"RA_OF_ASC_NODE":349.3552,"ARG_OF_PERICENTER":32.4824,"MEAN_ANOMALY":327.7588,"EPHEMERIS_TYPE":0,"CLASSIFICATION_TYPE":"U","NORAD_CAT_ID":270393,"ELEMENT_SET_NO":999,"REV_AT_EPOCH":15050,"BSTAR":0.00068893668,"MEAN_MOTION_DOT":1.409e-5,"MEAN_MOTION_DDOT":0},{"OBJECT_NAME":"UNKNOWN","OBJECT_ID":"","EPOCH":"2026-04-26T04:41:18.004992","MEAN_MOTION":14.13527947,"ECCENTRICITY":0.00721069,"INCLINATION":89.0364,"RA_OF_ASC_NODE":284.291,"ARG_OF_PERICENTER":11.9761,"MEAN_ANOMALY":348.3119,"EPHEMERIS_TYPE":0,"CLASSIFICATION_TYPE":"U","NORAD_CAT_ID":270394,"ELEMENT_SET_NO":999,"REV_AT_EPOCH":8793,"BSTAR":0.00015417064,"MEAN_MOTION_DOT":3.11e-6,"MEAN_MOTION_DDOT":0},{"OBJECT_NAME":"UNKNOWN","OBJECT_ID":"","EPOCH":"2026-04-25T18:53:14.165664","MEAN_MOTION":14.50407253,"ECCENTRICITY":0.00727402,"INCLINATION":98.7763,"RA_OF_ASC_NODE":135.9943,"ARG_OF_PERICENTER":222.674,"MEAN_ANOMALY":136.879,"EPHEMERIS_TYPE":0,"CLASSIFICATION_TYPE":"U","NORAD_CAT_ID":270395,"ELEMENT_SET_NO":999,"REV_AT_EPOCH":10434,"BSTAR":0.0039963943,"MEAN_MOTION_DOT":0.00016134,"MEAN_MOTION_DDOT":0},{"OBJECT_NAME":"UNKNOWN","OBJECT_ID":"","EPOCH":"2026-04-27T05:00:19.991808","MEAN_MOTION":14.08063738,"ECCENTRICITY":0.01032383,"INCLINATION":89.1117,"RA_OF_ASC_NODE":290.1934,"ARG_OF_PERICENTER":26.7961,"MEAN_ANOMALY":333.8503,"EPHEMERIS_TYPE":0,"CLASSIFICATION_TYPE":"U","NORAD_CAT_ID":270396,"ELEMENT_SET_NO":999,"REV_AT_EPOCH":8806,"BSTAR":0.00045422371,"MEAN_MOTION_DOT":8.25e-6,"MEAN_MOTION_DDOT":0},{"OBJECT_NAME":"UNKNOWN","OBJECT_ID":"","EPOCH":"2026-04-26T22:48:17.542656","MEAN_MOTION":14.17213994,"ECCENTRICITY":0.00755282,"INCLINATION":89.0453,"RA_OF_ASC_NODE":284.6186,"ARG_OF_PERICENTER":18.1813,"MEAN_ANOMALY":342.2049,"EPHEMERIS_TYPE":0,"CLASSIFICATION_TYPE":"U","NORAD_CAT_ID":270397,"ELEMENT_SET_NO":999,"REV_AT_EPOCH":8848,"BSTAR":0.0011949727,"MEAN_MOTION_DOT":2.492e-5,"MEAN_MOTION_DDOT":0},{"OBJECT_NAME":"UNKNOWN","OBJECT_ID":"","EPOCH":"2026-04-27T04:16:43.065408","MEAN_MOTION":14.0926246,"ECCENTRICITY":0.00990701,"INCLINATION":88.8502,"RA_OF_ASC_NODE":270.9007,"ARG_OF_PERICENTER":46.5957,"MEAN_ANOMALY":314.3421,"EPHEMERIS_TYPE":0,"CLASSIFICATION_TYPE":"U","NORAD_CAT_ID":270398,"ELEMENT_SET_NO":999,"REV_AT_EPOCH":8808,"BSTAR":0.00081648449,"MEAN_MOTION_DOT":1.5e-5,"MEAN_MOTION_DDOT":0},{"OBJECT_NAME":"UNKNOWN","OBJECT_ID":"","EPOCH":"2026-04-27T04:17:31.164288","MEAN_MOTION":14.39353355,"ECCENTRICITY":0.0053327,"INCLINATION":88.965,"RA_OF_ASC_NODE":275.832,"ARG_OF_PERICENTER":141.0785,"MEAN_ANOMALY":219.4275,"EPHEMERIS_TYPE":0,"CLASSIFICATION_TYPE":"U","NORAD_CAT_ID":270399,"ELEMENT_SET_NO":999,"REV_AT_EPOCH":9001,"BSTAR":0.00028829219,"MEAN_MOTION_DOT":9.26e-6,"MEAN_MOTION_DDOT":0},{"OBJECT_NAME":"UNKNOWN","OBJECT_ID":"","EPOCH":"2026-04-27T03:37:51.063744","MEAN_MOTION":14.54042651,"ECCENTRICITY":0.012169,"INCLINATION":88.9939,"RA_OF_ASC_NODE":276.2583,"ARG_OF_PERICENTER":79.787,"MEAN_ANOMALY":281.7036,"EPHEMERIS_TYPE":0,"CLASSIFICATION_TYPE":"U","NORAD_CAT_ID":270400,"ELEMENT_SET_NO":999,"REV_AT_EPOCH":9093,"BSTAR":0.00017407878,"MEAN_MOTION_DOT":8.3e-6,"MEAN_MOTION_DDOT":0},{"OBJECT_NAME":"UNKNOWN","OBJECT_ID":"","EPOCH":"2026-04-27T04:29:42.068544","MEAN_MOTION":14.32367167,"ECCENTRICITY":0.0057086,"INCLINATION":89.0439,"RA_OF_ASC_NODE":282.9283,"ARG_OF_PERICENTER":39.6028,"MEAN_ANOMALY":320.9317,"EPHEMERIS_TYPE":0,"CLASSIFICATION_TYPE":"U","NORAD_CAT_ID":270401,"ELEMENT_SET_NO":999,"REV_AT_EPOCH":8939,"BSTAR":0.0014039714,"MEAN_MOTION_DOT":3.876e-5,"MEAN_MOTION_DDOT":0},{"OBJECT_NAME":"UNKNOWN","OBJECT_ID":"","EPOCH":"2026-04-26T22:02:27.079872","MEAN_MOTION":14.53192832,"ECCENTRICITY":0.0117185,"INCLINATION":89.0265,"RA_OF_ASC_NODE":278.9906,"ARG_OF_PERICENTER":93.026,"MEAN_ANOMALY":268.4366,"EPHEMERIS_TYPE":0,"CLASSIFICATION_TYPE":"U","NORAD_CAT_ID":270402,"ELEMENT_SET_NO":999,"REV_AT_EPOCH":9081,"BSTAR":0.00030345669,"MEAN_MOTION_DOT":1.396e-5,"MEAN_MOTION_DDOT":0},{"OBJECT_NAME":"UNKNOWN","OBJECT_ID":"","EPOCH":"2026-04-26T20:22:25.253760","MEAN_MOTION":14.50082169,"ECCENTRICITY":0.01204587,"INCLINATION":88.9434,"RA_OF_ASC_NODE":272.8203,"ARG_OF_PERICENTER":106.4808,"MEAN_ANOMALY":254.9675,"EPHEMERIS_TYPE":0,"CLASSIFICATION_TYPE":"U","NORAD_CAT_ID":270403,"ELEMENT_SET_NO":999,"REV_AT_EPOCH":9065,"BSTAR":0.00013643331,"MEAN_MOTION_DOT":6.01e-6,"MEAN_MOTION_DDOT":0},{"OBJECT_NAME":"UNKNOWN","OBJECT_ID":"","EPOCH":"2026-04-27T03:06:54.330336","MEAN_MOTION":14.27950272,"ECCENTRICITY":0.00492841,"INCLINATION":88.8814,"RA_OF_ASC_NODE":270.9728,"ARG_OF_PERICENTER":242.1413,"MEAN_ANOMALY":117.4784,"EPHEMERIS_TYPE":0,"CLASSIFICATION_TYPE":"U","NORAD_CAT_ID":270404,"ELEMENT_SET_NO":999,"REV_AT_EPOCH":8923,"BSTAR":0.00023710888,"MEAN_MOTION_DOT":6.09e-6,"MEAN_MOTION_DDOT":0},{"OBJECT_NAME":"UNKNOWN","OBJECT_ID":"","EPOCH":"2026-04-27T02:35:19.732128","MEAN_MOTION":14.17436847,"ECCENTRICITY":0.00618272,"INCLINATION":88.7538,"RA_OF_ASC_NODE":262.9194,"ARG_OF_PERICENTER":334.2011,"MEAN_ANOMALY":25.6097,"EPHEMERIS_TYPE":0,"CLASSIFICATION_TYPE":"U","NORAD_CAT_ID":270405,"ELEMENT_SET_NO":999,"REV_AT_EPOCH":8857,"BSTAR":0.00021922775,"MEAN_MOTION_DOT":4.67e-6,"MEAN_MOTION_DDOT":0},{"OBJECT_NAME":"UNKNOWN","OBJECT_ID":"","EPOCH":"2026-04-27T04:48:16.359840","MEAN_MOTION":14.13377362,"ECCENTRICITY":0.00751467,"INCLINATION":88.9972,"RA_OF_ASC_NODE":281.2367,"ARG_OF_PERICENTER":14.4224,"MEAN_ANOMALY":345.9083,"EPHEMERIS_TYPE":0,"CLASSIFICATION_TYPE":"U","NORAD_CAT_ID":270406,"ELEMENT_SET_NO":999,"REV_AT_EPOCH":8812,"BSTAR":0.00030846573,"MEAN_MOTION_DOT":6.09e-6,"MEAN_MOTION_DDOT":0},{"OBJECT_NAME":"UNKNOWN","OBJECT_ID":"","EPOCH":"2026-04-26T23:09:06.821856","MEAN_MOTION":14.11791483,"ECCENTRICITY":0.00844621,"INCLINATION":89.1985,"RA_OF_ASC_NODE":296.1834,"ARG_OF_PERICENTER":15.2801,"MEAN_ANOMALY":345.0905,"EPHEMERIS_TYPE":0,"CLASSIFICATION_TYPE":"U","NORAD_CAT_ID":270407,"ELEMENT_SET_NO":999,"REV_AT_EPOCH":8826,"BSTAR":0.00032585064,"MEAN_MOTION_DOT":6.27e-6,"MEAN_MOTION_DDOT":0},{"OBJECT_NAME":"UNKNOWN","OBJECT_ID":"","EPOCH":"2026-04-26T22:47:05.466912","MEAN_MOTION":14.03252812,"ECCENTRICITY":0.01264857,"INCLINATION":89.178,"RA_OF_ASC_NODE":295.4198,"ARG_OF_PERICENTER":28.1258,"MEAN_ANOMALY":332.6679,"EPHEMERIS_TYPE":0,"CLASSIFICATION_TYPE":"U","NORAD_CAT_ID":270408,"ELEMENT_SET_NO":999,"REV_AT_EPOCH":3845,"BSTAR":0.00029427419,"MEAN_MOTION_DOT":5.06e-6,"MEAN_MOTION_DDOT":0},{"OBJECT_NAME":"UNKNOWN","OBJECT_ID":"","EPOCH":"2026-04-26T23:04:47.752320","MEAN_MOTION":14.25754994,"ECCENTRICITY":0.00215492,"INCLINATION":88.9989,"RA_OF_ASC_NODE":280.1111,"ARG_OF_PERICENTER":332.1562,"MEAN_ANOMALY":27.8477,"EPHEMERIS_TYPE":0,"CLASSIFICATION_TYPE":"U","NORAD_CAT_ID":270409,"ELEMENT_SET_NO":999,"REV_AT_EPOCH":8862,"BSTAR":0.00040640464,"MEAN_MOTION_DOT":9.81e-6,"MEAN_MOTION_DDOT":0},{"OBJECT_NAME":"UNKNOWN","OBJECT_ID":"","EPOCH":"2026-04-27T03:27:02.337120","MEAN_MOTION":14.36135165,"ECCENTRICITY":0.00370987,"INCLINATION":88.9468,"RA_OF_ASC_NODE":274.8069,"ARG_OF_PERICENTER":145.9057,"MEAN_ANOMALY":214.4536,"EPHEMERIS_TYPE":0,"CLASSIFICATION_TYPE":"U","NORAD_CAT_ID":270410,"ELEMENT_SET_NO":999,"REV_AT_EPOCH":8918,"BSTAR":0.0001732083,"MEAN_MOTION_DOT":5.24e-6,"MEAN_MOTION_DDOT":0},{"OBJECT_NAME":"UNKNOWN","OBJECT_ID":"","EPOCH":"2026-04-26T19:57:45.118080","MEAN_MOTION":14.28423125,"ECCENTRICITY":0.00147962,"INCLINATION":88.8712,"RA_OF_ASC_NODE":270.1255,"ARG_OF_PERICENTER":239.7252,"MEAN_ANOMALY":120.2479,"EPHEMERIS_TYPE":0,"CLASSIFICATION_TYPE":"U","NORAD_CAT_ID":270411,"ELEMENT_SET_NO":999,"REV_AT_EPOCH":8923,"BSTAR":0.00013798274,"MEAN_MOTION_DOT":3.6e-6,"MEAN_MOTION_DDOT":0}]
